NORAD_CAT_ID,OBJECT_NAME,OBJECT_TYPE,EPOCH,MEAN_MOTION,ECCENTRICITY,INCLINATION,RA_OF_ASC_NODE,ARG_OF_PERICENTER,MEAN_ANOMALY,BSTAR,MEAN_MOTION_DOT,MEAN_MOTION_DDOT,TLE_LINE0,TLE_LINE1,TLE_LINE2,SEMIMAJOR_AXIS,PERIOD,APOGEE,PERIGEE,DECAYED
52136.0,STARLINK-3720,PAYLOAD,2024-01-12 06:26:25,15.08839599,0.0001503,53.2175,3.9857,89.602,270.5145,2.4175e-05,9.7e-07,0.0,0 STARLINK-3720,1 52136U 22029BA  24012.26835400  .00000097  00000-0  24175-4 0  9998,2 52136  53.2175   3.9857 0001503  89.6020 270.5145 15.08839599102068,6917.882,95.438,540.786,538.707,0.0
52136.0,STARLINK-3720,PAYLOAD,2024-01-13 09:27:59,15.08843317,0.0001609,53.2174,358.9301,113.5983,246.5178,2.1752e-05,5.8e-07,0.0,0 STARLINK-3720,1 52136U 22029BA  24013.39443465  .00000058  00000-0  21752-4 0  9994,2 52136  53.2174 358.9301 0001609 113.5983 246.5178 15.08843317102237,6917.87,95.437,540.848,538.622,0.0
52136.0,STARLINK-3720,PAYLOAD,2024-01-14 04:32:37,15.08836268,0.0001507,53.2175,355.3597,94.2934,265.823,9.4085e-05,1.21e-05,0.0,0 STARLINK-3720,1 52136U 22029BA  24014.18932204  .00001210  00000-0  94085-4 0  9996,2 52136  53.2175 355.3597 0001507  94.2934 265.8230 15.08836268102357,6917.892,95.438,540.799,538.714,0.0
52136.0,STARLINK-3720,PAYLOAD,2024-01-14 07:43:23,15.08838247,0.000172,53.2191,354.7667,108.4015,251.7164,0.00010501,1.383e-05,0.0,0 STARLINK-3720,1 52136U 22029BA  24014.32180023  .00001383  00000-0  10501-3 0  9997,2 52136  53.2191 354.7667 0001720 108.4015 251.7164 15.08838247102372,6917.886,95.438,540.941,538.561,0.0
52136.0,STARLINK-3720,PAYLOAD,2024-01-15 07:34:09,15.08847359,0.0002023,53.2202,350.3061,126.7429,233.3749,0.00026773,3.976e-05,0.0,0 STARLINK-3720,1 52136U 22029BA  24015.31539216  .00003976  00000-0  26773-3 0  9997,2 52136  53.2202 350.3061 0002023 126.7429 233.3749 15.08847359102520,6917.858,95.437,541.122,538.323,0.0
52136.0,STARLINK-3720,PAYLOAD,2024-01-16 07:24:57,15.08838479,0.0002102,53.2197,345.8508,93.0576,267.0656,3.0475e-05,1.97e-06,0.0,0 STARLINK-3720,1 52136U 22029BA  24016.30900459  .00000197  00000-0  30475-4 0  9995,2 52136  53.2197 345.8508 0002102  93.0576 267.0656 15.08838479102675,6917.885,95.438,541.204,538.296,0.0
52136.0,STARLINK-3720,PAYLOAD,2024-01-16 21:43:25,15.08848431,0.0002131,53.217,343.1713,125.0439,235.0753,-5.7516e-05,-1.204e-05,0.0,0 STARLINK-3720,1 52136U 22029BA  24016.90515800 -.00001204  00000-0 -57516-4 0  9990,2 52136  53.2170 343.1713 0002131 125.0439 235.0753 15.08848431102763,6917.855,95.437,541.194,538.245,0.0
52136.0,STARLINK-3720,PAYLOAD,2024-01-17 04:04:57,15.08856588,0.0001457,53.2169,341.9851,103.9966,256.1188,0.00015846,2.236e-05,0.0,0 STARLINK-3720,1 52136U 22029BA  24017.17011143  .00002236  00000-0  15846-3 0  9994,2 52136  53.2169 341.9851 0001457 103.9966 256.1188 15.08856588102803,6917.83,95.437,540.703,538.687,0.0
52136.0,STARLINK-3720,PAYLOAD,2024-01-18 03:55:45,15.08840778,0.0001557,53.2168,337.5246,94.0715,266.0455,0.00010049,1.312e-05,0.0,0 STARLINK-3720,1 52136U 22029BA  24018.16372401  .00001312  00000-0  10049-3 0  9995,2 52136  53.2168 337.5246 0001557  94.0715 266.0455 15.08840778102951,6917.878,95.438,540.82,538.666,0.0
52136.0,STARLINK-3720,PAYLOAD,2024-01-18 07:06:31,15.0884195,0.0001585,53.2168,336.9291,97.7971,262.3201,0.00011694,1.574e-05,0.0,0 STARLINK-3720,1 52136U 22029BA  24018.29620326  .00001574  00000-0  11694-3 0  9998,2 52136  53.2168 336.9291 0001585  97.7971 262.3201 15.08841950102972,6917.874,95.437,540.836,538.643,0.0
52136.0,STARLINK-3720,PAYLOAD,2024-01-18 21:25:00,15.08840774,0.0001556,53.2172,334.2505,107.0581,253.0582,-0.00010277,-1.923e-05,0.0,0 STARLINK-3720,1 52136U 22029BA  24018.89236444 -.00001923  00000-0 -10277-3 0  9994,2 52136  53.2172 334.2505 0001556 107.0581 253.0582 15.08840774103069,6917.878,95.438,540.819,538.667,0.0
52136.0,STARLINK-3720,PAYLOAD,2024-01-19 03:46:32,15.08851253,0.000152,53.2171,333.0629,99.2564,260.86,0.00012882,1.763e-05,0.0,0 STARLINK-3720,1 52136U 22029BA  24019.15731762  .00001763  00000-0  12882-3 0  9991,2 52136  53.2171 333.0629 0001520  99.2564 260.8600 15.08851253103102,6917.846,95.437,540.763,538.659,0.0
52136.0,STARLINK-3720,PAYLOAD,2024-01-19 21:15:47,15.08841582,0.0001751,53.2184,329.7912,85.6509,274.4683,0.0001359,1.876e-05,0.0,0 STARLINK-3720,1 52136U 22029BA  24019.88596314  .00001876  00000-0  13590-3 0  9995,2 52136  53.2184 329.7912 0001751  85.6509 274.4683 15.08841582103215,6917.876,95.437,540.952,538.529,0.0
52136.0,STARLINK-3720,PAYLOAD,2024-01-20 02:01:56,15.08848289,0.0001482,53.2169,328.8988,102.0995,258.0163,0.00019792,2.864e-05,0.0,0 STARLINK-3720,1 52136U 22029BA  24020.08467932  .00002864  00000-0  19792-3 0  9990,2 52136  53.2169 328.8988 0001482 102.0995 258.0163 15.08848289103240,6917.855,95.437,540.745,538.695,0.0
52136.0,STARLINK-3720,PAYLOAD,2024-01-20 06:48:05,15.08851482,0.0001526,53.2169,328.0061,108.1195,251.9963,0.00022655,3.321e-05,0.0,0 STARLINK-3720,1 52136U 22029BA  24020.28339653  .00003321  00000-0  22655-3 0  9991,2 52136  53.2169 328.0061 0001526 108.1195 251.9963 15.08851482103274,6917.845,95.437,540.766,538.655,0.0
52136.0,STARLINK-3720,PAYLOAD,2024-01-21 03:28:06,15.08845342,0.0001469,53.218,324.133,87.8265,272.2896,8.4897e-05,1.064e-05,0.0,0 STARLINK-3720,1 52136U 22029BA  24021.14452003  .00001064  00000-0  84897-4 0  9991,2 52136  53.2180 324.1330 0001469  87.8265 272.2896 15.08845342103404,6917.864,95.437,540.745,538.713,0.0
52136.0,STARLINK-3720,PAYLOAD,2024-01-21 05:03:27,15.0888944,0.0001396,53.2165,323.8448,69.4576,290.6566,0.00066958,0.00010399,0.0,0 STARLINK-3720,1 52136U 22029BA  24021.21073616  .00010399  00000-0  66958-3 0  9996,2 52136  53.2165 323.8448 0001396  69.4576 290.6566 15.08889440103419,6917.729,95.434,540.56,538.629,0.0
52136.0,STARLINK-3720,PAYLOAD,2024-01-22 03:18:54,15.08823266,0.0001619,53.2176,319.6792,122.163,237.952,-0.0001935,-3.365e-05,0.0,0 STARLINK-3720,1 52136U 22029BA  24022.13813590 -.00003365  00000-0 -19350-3 0  9992,2 52136  53.2176 319.6792 0001619 122.1630 237.9520 15.08823266103555,6917.932,95.439,540.917,538.677,0.0
52136.0,STARLINK-3720,PAYLOAD,2024-01-22 04:54:18,15.08823156,0.0001707,53.2177,319.3807,127.5594,232.5553,-0.00019286,-3.355e-05,0.0,0 STARLINK-3720,1 52136U 22029BA  24022.20437672 -.00003355  00000-0 -19286-3 0  9990,2 52136  53.2177 319.3807 0001707 127.5594 232.5553 15.08823156103562,6917.932,95.439,540.978,538.616,0.0
52136.0,STARLINK-3720,PAYLOAD,2024-01-23 03:09:40,15.08852257,0.0001512,53.2187,315.2232,94.8602,265.2563,0.00011519,1.546e-05,0.0,0 STARLINK-3720,1 52136U 22029BA  24023.13171859  .00001546  00000-0  11519-3 0  9994,2 52136  53.2187 315.2232 0001512  94.8602 265.2563 15.08852257103704,6917.843,95.437,540.754,538.662,0.0
52136.0,STARLINK-3720,PAYLOAD,2024-01-23 06:20:26,15.08857272,0.0001502,53.2186,314.6274,101.86,258.2561,0.00015891,2.243e-05,0.0,0 STARLINK-3720,1 52136U 22029BA  24023.26419408  .00002243  00000-0  15891-3 0  9995,2 52136  53.2186 314.6274 0001502 101.8600 258.2561 15.08857272103722,6917.828,95.436,540.732,538.654,0.0
52136.0,STARLINK-3720,PAYLOAD,2024-01-24 01:25:05,15.08827583,0.000192,53.2185,311.0592,99.565,260.556,0.00023591,3.467e-05,0.0,0 STARLINK-3720,1 52136U 22029BA  24024.05908986  .00003467  00000-0  23591-3 0  9992,2 52136  53.2185 311.0592 0001920  99.5650 260.5560 15.08827583103847,6917.918,95.438,541.112,538.455,0.0
52136.0,STARLINK-3720,PAYLOAD,2024-01-24 22:05:06,15.08844534,0.0001826,53.2173,307.195,106.0677,254.0516,-4.4041e-05,-9.89e-06,0.0,0 STARLINK-3720,1 52136U 22029BA  24024.92021252 -.00000989  00000-0 -44041-4 0  9992,2 52136  53.2173 307.1950 0001826 106.0677 254.0516 15.08844534103974,6917.867,95.437,540.995,538.468,0.0
52136.0,STARLINK-3720,PAYLOAD,2024-01-25 01:15:52,15.0884412,0.0001787,53.2172,306.6022,103.4681,256.651,-4.3913e-05,-9.87e-06,0.0,0 STARLINK-3720,1 52136U 22029BA  24025.05269266 -.00000987  00000-0 -43913-4 0  9991,2 52136  53.2172 306.6022 0001787 103.4681 256.6510 15.08844120103994,6917.868,95.437,540.969,538.497,0.0
52136.0,STARLINK-3720,PAYLOAD,2024-01-25 21:55:53,15.08832991,0.0001665,53.2194,302.7408,104.7995,255.3182,3.6582e-05,2.94e-06,0.0,0 STARLINK-3720,1 52136U 22029BA  24025.91381834  .00000294  00000-0  36582-4 0  9995,2 52136  53.2194 302.7408 0001665 104.7995 255.3182 15.08832991104120,6917.902,95.438,540.919,538.615,0.0
52136.0,STARLINK-3720,PAYLOAD,2024-01-26 01:06:39,15.0884417,0.000192,53.219,302.1435,125.3363,234.7809,-5.2939e-05,-1.131e-05,0.0,0 STARLINK-3720,1 52136U 22029BA  24026.04629294 -.00001131  00000-0 -52939-4 0  9992,2 52136  53.2190 302.1435 0001920 125.3363 234.7809 15.08844170104143,6917.868,95.437,541.061,538.404,0.0
52136.0,STARLINK-3720,PAYLOAD,2024-01-26 23:22:03,15.08842248,0.0001634,53.2184,297.9787,102.2059,257.9116,0.0001042,1.371e-05,0.0,0 STARLINK-3720,1 52136U 22029BA  24026.97365287  .00001371  00000-0  10420-3 0  9995,2 52136  53.2184 297.9787 0001634 102.2059 257.9116 15.08842248104282,6917.874,95.437,540.869,538.608,0.0
52136.0,STARLINK-3720,PAYLOAD,2024-01-27 21:37:27,15.08840497,0.0001627,53.218,293.8194,111.5828,248.5338,5.0039e-06,-2.08e-06,0.0,0 STARLINK-3720,1 52136U 22029BA  24027.90101816 -.00000208  00000-0  50039-5 0  9996,2 52136  53.2180 293.8194 0001627 111.5828 248.5338 15.08840497104426,6917.879,95.438,540.869,538.618,0.0
52136.0,STARLINK-3720,PAYLOAD,2024-01-28 02:23:37,15.08841538,0.00015,53.2178,292.9254,106.8481,253.2676,7.1524e-05,8.51e-06,0.0,0 STARLINK-3720,1 52136U 22029BA  24028.09973529  .00000851  00000-0  71524-4 0  9999,2 52136  53.2178 292.9254 0001500 106.8481 253.2676 15.08841538104450,6917.876,95.437,540.778,538.703,0.0
52136.0,STARLINK-3720,PAYLOAD,2024-01-28 21:28:15,15.08837207,0.0001638,53.2183,289.3525,105.475,254.6423,-2.4293e-05,-6.75e-06,0.0,0 STARLINK-3720,1 52136U 22029BA  24028.89462174 -.00000675  00000-0 -24293-4 0  9993,2 52136  53.2183 289.3525 0001638 105.4750 254.6423 15.08837207104579,6917.889,95.438,540.887,538.621,0.0
